H1 CPF 01  gfz 2021 03 07 13  5662 terrasarx 
H2 0702601  6201 31698    2021 03 07 12 59 42 2021 03 12 00 00 42   120 1 1  0 0 0
H9
10 0 59283  85662.000000  0    -462487.955  -4195562.983   5434130.961
10 0 59283  85782.000000  0    -602617.016  -3433158.101   5931505.994
10 0 59283  85902.000000  0    -718339.484  -2608578.229   6324591.228
10 0 59283  86022.000000  0    -806680.981  -1736686.570   6606513.671
10 0 59283  86142.000000  0    -865412.315   -833205.779   6772348.049
10 0 59283  86262.000000  0    -893100.318     85567.063   6819198.967
10 0 59283  86382.000000  0    -889140.163   1003054.882   6746248.468
10 0 59284    102.000000  0    -853767.583   1902699.279   6554769.361
10 0 59284    222.000000  0    -788051.643   2768258.738   6248104.289
10 0 59284    342.000000  0    -693868.631   3584102.012   5831611.257
10 0 59284    462.000000  0    -573857.331   4335492.850   5312575.129
10 0 59284    582.000000  0    -431356.014   5008860.116   4700086.390
10 0 59284    702.000000  0    -270322.707   5592051.240   4004887.822
10 0 59284    822.000000  0     -95239.290   6074558.634   3239188.648
10 0 59284    942.000000  0      88996.278   6447719.881   2416455.604
10 0 59284   1062.000000  0     277190.118   6704887.226   1551171.694
10 0 59284   1182.000000  0     463981.758   6841551.879    658575.185
10 0 59284   1302.000000  0     643978.290   6855428.260   -245615.312
10 0 59284   1422.000000  0     811890.372   6746493.641  -1145486.549
10 0 59284   1542.000000  0     962665.156   6516981.274  -2025219.372
10 0 59284   1662.000000  0    1091613.465   6171329.328  -2869373.828
10 0 59284   1782.000000  0    1194528.893   5716086.446  -3663165.248
10 0 59284   1902.000000  0    1267795.876   5159776.599  -4392725.409
10 0 59284   2022.000000  0    1308483.928   4512727.016  -5045343.328
10 0 59284   2142.000000  0    1314425.904   3786864.521  -5609680.676
10 0 59284   2262.000000  0    1284278.545   2995486.794  -6075960.259
10 0 59284   2382.000000  0    1217564.568   2153011.635  -6436124.986
10 0 59284   2502.000000  0    1114695.551   1274711.884  -6683964.613
10 0 59284   2622.000000  0     976975.918    376440.543  -6815213.222
10 0 59284   2742.000000  0     806587.734   -525651.583  -6827614.882
10 0 59284   2862.000000  0     606556.324  -1415400.566  -6720957.123
10 0 59284   2982.000000  0     380697.776  -2276910.816  -6497072.722
10 0 59284   3102.000000  0     133549.186  -3094831.278  -6159813.318
10 0 59284   3222.000000  0    -129719.042  -3854626.227  -5714991.297
10 0 59284   3342.000000  0    -403405.750  -4542832.300  -5170288.623
10 0 59284   3462.000000  0    -681395.672  -5147299.697  -4535135.957
10 0 59284   3582.000000  0    -957289.050  -5657413.593  -3820560.618
10 0 59284   3702.000000  0   -1224541.348  -6064290.356  -3039004.284
10 0 59284   3822.000000  0   -1476609.939  -6360943.755  -2204113.081
10 0 59284   3942.000000  0   -1707104.969  -6542417.903  -1330502.652
10 0 59284   4062.000000  0   -1909940.327  -6605882.125   -433500.890
10 0 59284   4182.000000  0   -2079481.071  -6550684.012    471125.958
10 0 59284   4302.000000  0   -2210683.802  -6378358.749   1367457.794
10 0 59284   4422.000000  0   -2299225.909  -6092594.220   2239709.721
10 0 59284   4542.000000  0   -2341620.079  -5699152.343   3072519.237
10 0 59284   4662.000000  0   -2335310.731  -5205748.567   3851224.537
10 0 59284   4782.000000  0   -2278750.310  -4621893.493   4562127.536
10 0 59284   4902.000000  0   -2171454.173  -3958701.695   5192736.887
10 0 59284   5022.000000  0   -2014033.175  -3228671.293   5731987.855
10 0 59284   5142.000000  0   -1808201.826  -2445439.176   6170432.891
10 0 59284   5262.000000  0   -1556762.517  -1623520.589   6500401.286
10 0 59284   5382.000000  0   -1263567.494   -778036.424   6716127.979
10 0 59284   5502.000000  0    -933459.630     75567.992   6813847.593
10 0 59284   5622.000000  0    -572192.779    921804.202   6791855.356
10 0 59284   5742.000000  0    -186331.436   1745421.050   6650535.838
10 0 59284   5862.000000  0     216868.509   2531679.307   6392356.643
10 0 59284   5982.000000  0     629595.589   3266615.234   6021827.597
10 0 59284   6102.000000  0    1043632.495   3937290.002   5545427.130
10 0 59284   6222.000000  0    1450517.979   4532021.358   4971494.797
10 0 59284   6342.000000  0    1841718.290   5040593.397   4310091.280
10 0 59284   6462.000000  0    2208804.834   5454438.916   3572826.475
10 0 59284   6582.000000  0    2543635.038   5766791.892   2772660.324
10 0 59284   6702.000000  0    2838530.815   5972809.161   1923673.987
10 0 59284   6822.000000  0    3086451.704   6069650.903   1040816.646
10 0 59284   6942.000000  0    3281156.065   6056520.752    139635.771
10 0 59284   7062.000000  0    3417347.910   5934665.512   -764004.321
10 0 59284   7182.000000  0    3490805.832   5707333.045  -1654210.259
10 0 59284   7302.000000  0    3498489.991   5379690.703  -2515346.701
10 0 59284   7422.000000  0    3438625.091   4958705.660  -3332317.753
10 0 59284   7542.000000  0    3310756.111   4452990.054  -4090835.464
10 0 59284   7662.000000  0    3115776.723   3872616.840  -4777668.717
10 0 59284   7782.000000  0    2855930.382   3228912.004  -5380870.329
10 0 59284   7902.000000  0    2534784.744   2534226.572  -5889977.563
10 0 59284   8022.000000  0    2157180.161   1801694.901  -6296183.718
10 0 59284   8142.000000  0    1729153.544   1044984.399  -6592478.687
10 0 59284   8262.000000  0    1257841.083    278042.241  -6773758.185
10 0 59284   8382.000000  0     751359.485   -485157.392  -6836903.769
10 0 59284   8502.000000  0     218666.924  -1230863.234  -6780830.004
10 0 59284   8622.000000  0    -330591.607  -1945787.863  -6606499.513
10 0 59284   8742.000000  0    -886253.937  -2617337.878  -6316909.395
10 0 59284   8862.000000  0   -1437824.463  -3233832.831  -5917045.925
10 0 59284   8982.000000  0   -1974667.376  -3784706.716  -5413806.939
10 0 59284   9102.000000  0   -2486207.957  -4260690.811  -4815894.928
10 0 59284   9222.000000  0   -2962139.812  -4653975.594  -4133678.358
10 0 59284   9342.000000  0   -3392632.634  -4958346.004  -3379021.290
10 0 59284   9462.000000  0   -3768536.058  -5169287.823  -2565085.057
10 0 59284   9582.000000  0   -4081576.135  -5284062.694  -1706103.477
10 0 59284   9702.000000  0   -4324538.969  -5301748.953   -817134.641
10 0 59284   9822.000000  0   -4491436.308  -5223246.672     86206.293
10 0 59284   9942.000000  0   -4577648.577  -5051246.085    988027.777
10 0 59284  10062.000000  0   -4580041.553  -4790159.270   1872450.505
10 0 59284  10182.000000  0   -4497052.491  -4446015.923   2723896.552
10 0 59284  10302.000000  0   -4328744.195  -4026327.074   3527371.772
10 0 59284  10422.000000  0   -4076826.217  -3539920.515   4268736.265
10 0 59284  10542.000000  0   -3744641.717  -2996751.278   4934957.533
10 0 59284  10662.000000  0   -3337121.150  -2407692.775   5514339.056
10 0 59284  10782.000000  0   -2860705.513  -1784315.628   5996722.721
10 0 59284  10902.000000  0   -2323240.180  -1138657.567   6373663.507
10 0 59284  11022.000000  0   -1733840.980   -482987.389   6638572.903
10 0 59284  11142.000000  0   -1102734.505    170430.149   6786826.603
10 0 59284  11262.000000  0    -441079.599    809562.012   6815838.717
10 0 59284  11382.000000  0     239229.577   1422827.657   6725104.580
10 0 59284  11502.000000  0     925776.875   1999308.670   6516209.283
10 0 59284  11622.000000  0    1605850.271   2528943.194   6192800.993
10 0 59284  11742.000000  0    2266676.180   3002701.606   5760531.206
10 0 59284  11862.000000  0    2895659.662   3412742.930   5226962.843
10 0 59284  11982.000000  0    3480627.437   3752548.892   4601443.909
10 0 59284  12102.000000  0    4010065.830   4017030.568   3894947.542
10 0 59284  12222.000000  0    4473351.459   4202609.335   3119886.250
10 0 59284  12342.000000  0    4860972.130   4307267.654   2289892.773
10 0 59284  12462.000000  0    5164725.334   4330567.167   1419578.220
10 0 59284  12582.000000  0    5377895.782   4273635.298    524270.022
10 0 59284  12702.000000  0    5495403.756   4139119.128   -380266.333
10 0 59284  12822.000000  0    5513920.024   3931107.906  -1278114.100
10 0 59284  12942.000000  0    5431946.058   3655026.415  -2153493.629
10 0 59284  13062.000000  0    5249856.891   3317501.659  -2991046.579
10 0 59284  13182.000000  0    4969906.521   2926207.841  -3776109.329
10 0 59284  13302.000000  0    4596196.530   2489693.799  -4494971.666
10 0 59284  13422.000000  0    4134607.404   2017194.950  -5135114.483
10 0 59284  13542.000000  0    3592696.933   1518436.905  -5685420.812
10 0 59284  13662.000000  0    2979568.325   1003435.734  -6136359.885
10 0 59284  13782.000000  0    2305710.364    482298.230  -6480141.554
10 0 59284  13902.000000  0    1582814.457    -34973.343  -6710838.618
10 0 59284  14022.000000  0     823572.826   -538669.014  -6824479.664
10 0 59284  14142.000000  0      41457.115  -1019549.548  -6819110.557
10 0 59284  14262.000000  0    -749515.631  -1469011.099  -6694822.530
10 0 59284  14382.000000  0   -1535027.559  -1879234.806  -6453751.511
10 0 59284  14502.000000  0   -2300713.618  -2243320.649  -6100045.726
10 0 59284  14622.000000  0   -3032418.515  -2555402.153  -5639801.284
10 0 59284  14742.000000  0   -3716454.876  -2810741.680  -5080968.720
10 0 59284  14862.000000  0   -4339860.706  -3005805.076  -4433227.599
10 0 59284  14982.000000  0   -4890648.458  -3138312.447  -3707829.089
10 0 59284  15102.000000  0   -5358041.706  -3207264.409  -2917409.742
10 0 59284  15222.000000  0   -5732694.537  -3212943.005  -2075777.319
10 0 59284  15342.000000  0   -6006887.178  -3156886.312  -1197671.578
10 0 59284  15462.000000  0   -6174693.152  -3041837.246   -298504.764
10 0 59284  15582.000000  0   -6232113.062  -2871666.896    605913.724
10 0 59284  15702.000000  0   -6177171.657  -2651274.595   1499663.019
99
